NORAD_CAT_ID,OBJECT_NAME,OBJECT_TYPE,EPOCH,MEAN_MOTION,ECCENTRICITY,INCLINATION,RA_OF_ASC_NODE,ARG_OF_PERICENTER,MEAN_ANOMALY,BSTAR,MEAN_MOTION_DOT,MEAN_MOTION_DDOT,TLE_LINE0,TLE_LINE1,TLE_LINE2,SEMIMAJOR_AXIS,PERIOD,APOGEE,PERIGEE,DECAYED
55926.0,STARLINK-5921,PAYLOAD,2024-04-06 10:01:32,14.98331389,0.0002982,69.9996,255.252,270.2607,89.821,-1.3237e-05,-2.51e-06,0.0,0 STARLINK-5921,1 55926U 23037N   24097.41774023 -.00000251  00000-0 -13237-4 0  9992,2 55926  69.9996 255.2520 0002982 270.2607  89.8210 14.98331389 58788,6950.189,96.107,574.126,569.981,0.0
55926.0,STARLINK-5921,PAYLOAD,2024-04-06 16:26:05,14.98331086,0.0002986,69.9996,254.5786,271.2073,88.8744,-1.4872e-05,-2.7e-06,0.0,0 STARLINK-5921,1 55926U 23037N   24097.68478020 -.00000270  00000-0 -14872-4 0  9996,2 55926  69.9996 254.5786 0002986 271.2073  88.8744 14.98331086 59164,6950.19,96.107,574.13,569.979,0.0
55926.0,STARLINK-5921,PAYLOAD,2024-04-07 10:03:33,14.98329326,0.0002919,69.9999,252.7268,270.0753,90.0072,-3.9376e-05,-5.63e-06,0.0,0 STARLINK-5921,1 55926U 23037N   24098.41914180 -.00000563  00000-0 -39376-4 0  9991,2 55926  69.9999 252.7268 0002919 270.0753  90.0072 14.98329326 58937,6950.195,96.107,574.089,570.031,0.0
55926.0,STARLINK-5921,PAYLOAD,2024-04-07 16:28:06,14.98328946,0.0002896,70.0,252.0537,270.529,89.5537,-2.9204e-05,-4.41e-06,0.0,0 STARLINK-5921,1 55926U 23037N   24098.68618188 -.00000441  00000-0 -29204-4 0  9993,2 55926  70.0000 252.0537 0002896 270.5290  89.5537 14.98328946 59319,6950.196,96.107,574.074,570.048,0.0
55926.0,STARLINK-5921,PAYLOAD,2024-04-08 10:05:34,14.98327403,0.0002983,69.9993,250.2021,270.7828,89.2989,4.1182e-06,-4.4e-07,0.0,0 STARLINK-5921,1 55926U 23037N   24099.42054286 -.00000044  00000-0  41182-5 0  9997,2 55926  69.9993 250.2021 0002983 270.7828  89.2989 14.98327403 59080,6950.201,96.107,574.139,569.993,0.0
55926.0,STARLINK-5921,PAYLOAD,2024-04-08 19:42:23,14.98330243,0.0003065,69.9999,249.1916,269.7308,90.35,2.7095e-05,2.3e-06,0.0,0 STARLINK-5921,1 55926U 23037N   24099.82110024  .00000230  00000-0  27095-4 0  9996,2 55926  69.9999 249.1916 0003065 269.7308  90.3500 14.98330243 59481,6950.192,96.107,574.187,569.927,0.0
55926.0,STARLINK-5921,PAYLOAD,2024-04-09 10:07:35,14.98329063,0.0003109,69.9998,247.6768,269.4944,90.5858,7.962e-05,8.57e-06,0.0,0 STARLINK-5921,1 55926U 23037N   24100.42193928  .00000857  00000-0  79620-4 0  9995,2 55926  69.9998 247.6768 0003109 269.4944  90.5858 14.98329063 59239,6950.196,96.107,574.222,569.9,0.0
55926.0,STARLINK-5921,PAYLOAD,2024-04-09 19:44:23,14.98330859,0.0003114,70.0017,246.6671,271.2587,88.8215,5.6618e-05,5.83e-06,0.0,0 STARLINK-5921,1 55926U 23037N   24100.82249893  .00000583  00000-0  56618-4 0  9990,2 55926  70.0017 246.6671 0003114 271.2587  88.8215 14.98330859 59632,6950.19,96.107,574.22,569.891,0.0
55926.0,STARLINK-5921,PAYLOAD,2024-04-10 10:09:36,14.98333372,0.0003025,70.0024,245.1519,272.749,87.3323,2.1692e-05,1.66e-06,0.0,0 STARLINK-5921,1 55926U 23037N   24101.42333805  .00000166  00000-0  21692-4 0  9995,2 55926  70.0024 245.1519 0003025 272.7490  87.3323 14.98333372 59384,6950.182,96.107,574.15,569.945,0.0
55926.0,STARLINK-5921,PAYLOAD,2024-04-10 19:46:24,14.9833326,0.0003073,69.9989,244.1436,268.3159,91.7648,1.3013e-05,6.2e-07,0.0,0 STARLINK-5921,1 55926U 23037N   24101.82389709  .00000062  00000-0  13013-4 0  9996,2 55926  69.9989 244.1436 0003073 268.3159  91.7648 14.98333260 59783,6950.183,96.107,574.184,569.912,0.0
55926.0,STARLINK-5921,PAYLOAD,2024-04-11 02:10:57,14.98325016,0.0002953,69.9993,243.4699,269.5127,90.5693,-2.3303e-06,-1.21e-06,0.0,0 STARLINK-5921,1 55926U 23037N   24102.09094309 -.00000121  00000-0 -23303-5 0  9997,2 55926  69.9993 243.4699 0002953 269.5127  90.5693 14.98325016 59827,6950.208,96.107,574.126,570.021,0.0
55926.0,STARLINK-5921,PAYLOAD,2024-04-11 13:23:53,14.98329195,0.0003076,69.9999,242.2912,271.1962,88.8844,-3.1413e-05,-4.68e-06,0.0,0 STARLINK-5921,1 55926U 23037N   24102.55826102 -.00000468  00000-0 -31413-4 0  9996,2 55926  69.9999 242.2912 0003076 271.1962  88.8844 14.98329195 59551,6950.195,96.107,574.198,569.923,0.0
55926.0,STARLINK-5921,PAYLOAD,2024-04-11 19:48:24,14.98374875,0.0002829,70.0,241.6182,277.2971,82.7866,-0.00072576,-8.752e-05,0.0,0 STARLINK-5921,1 55926U 23037N   24102.82528760 -.00008752  00000-0 -72576-3 0  9993,2 55926  70.0000 241.6182 0002829 277.2971  82.7866 14.98374875 59935,6950.054,96.104,573.885,569.953,0.0
55926.0,STARLINK-5921,PAYLOAD,2024-04-12 02:12:58,14.98330154,0.0003021,70.0,240.945,270.4836,89.5977,-9.336e-06,-2.04e-06,0.0,0 STARLINK-5921,1 55926U 23037N   24103.09233934 -.00000204  00000-0 -93360-5 0  9999,2 55926  70.0000 240.9450 0003021 270.4836  89.5977 14.98330154 59979,6950.192,96.107,574.157,569.958,0.0
55926.0,STARLINK-5921,PAYLOAD,2024-04-12 13:25:54,14.98331951,0.0003052,70.0001,239.7665,271.5574,88.5235,-1.702e-05,-2.96e-06,0.0,0 STARLINK-5921,1 55926U 23037N   24103.55965829 -.00000296  00000-0 -17020-4 0  9994,2 55926  70.0001 239.7665 0003052 271.5574  88.5235 14.98331951 59702,6950.187,96.107,574.173,569.931,0.0
55926.0,STARLINK-5921,PAYLOAD,2024-04-12 15:02:02,14.98349213,0.0002899,70.0002,239.5981,270.9828,89.0999,-0.00029106,-3.566e-05,0.0,0 STARLINK-5921,1 55926U 23037N   24103.62641510 -.00003566  00000-0 -29106-3 0  9990,2 55926  70.0002 239.5981 0002899 270.9828  89.0999 14.98349213 60058,6950.133,96.106,574.013,569.984,0.0
55926.0,STARLINK-5921,PAYLOAD,2024-04-13 13:27:55,14.9832583,0.0002955,70.0004,237.2416,268.6261,91.456,-7.3902e-07,-1.02e-06,0.0,0 STARLINK-5921,1 55926U 23037N   24104.56106258 -.00000102  00000-0 -73902-6 0  9998,2 55926  70.0004 237.2416 0002955 268.6261  91.4560 14.98325830 60191,6950.206,96.107,574.125,570.017,0.0
55926.0,STARLINK-5921,PAYLOAD,2024-04-13 18:16:19,14.98327525,0.0003004,70.0004,236.7367,269.2674,90.8141,9.5119e-07,-8.2e-07,0.0,0 STARLINK-5921,1 55926U 23037N   24104.76134188 -.00000082  00000-0  95119-6 0  9993,2 55926  70.0004 236.7367 0003004 269.2674  90.8141 14.98327525 59886,6950.201,96.107,574.153,569.978,0.0
55926.0,STARLINK-5921,PAYLOAD,2024-04-14 18:18:20,14.98337206,0.0002825,70.001,234.2129,263.1954,96.8884,0.00010617,1.174e-05,0.0,0 STARLINK-5921,1 55926U 23037N   24105.76273246  .00001174  00000-0  10617-3 0  9992,2 55926  70.0010 234.2129 0002825 263.1954  96.8884 14.98337206 60379,6950.171,96.107,573.999,570.072,0.0
55926.0,STARLINK-5921,PAYLOAD,2024-04-15 13:31:57,14.98331198,0.0002747,70.0013,232.1928,260.9517,99.1331,8.7366e-05,9.5e-06,0.0,0 STARLINK-5921,1 55926U 23037N   24106.56385466  .00000950  00000-0  87366-4 0  9996,2 55926  70.0013 232.1928 0002747 260.9517  99.1331 14.98331198 60499,6950.189,96.107,573.963,570.145,0.0
55926.0,STARLINK-5921,PAYLOAD,2024-04-16 13:33:57,14.98333221,0.0002861,70.0015,229.6697,264.6414,95.4419,2.0757e-05,1.55e-06,0.0,0 STARLINK-5921,1 55926U 23037N   24107.56525365  .00000155  00000-0  20757-4 0  9999,2 55926  70.0015 229.6697 0002861 264.6414  95.4419 14.98333221 60641,6950.183,96.107,574.036,570.059,0.0
55926.0,STARLINK-5921,PAYLOAD,2024-04-16 15:10:06,14.98325062,0.0002304,70.0029,229.4992,254.6324,105.4581,-4.6046e-05,-6.42e-06,0.0,0 STARLINK-5921,1 55926U 23037N   24107.63202053 -.00000642  00000-0 -46046-4 0  9995,2 55926  70.0029 229.4992 0002304 254.6324 105.4581 14.98325062 60313,6950.208,96.107,573.674,570.472,0.0
55926.0,STARLINK-5921,PAYLOAD,2024-04-16 18:22:25,14.98291298,0.0002535,70.0012,229.1636,261.1833,98.9039,-0.00051498,-6.226e-05,0.0,0 STARLINK-5921,1 55926U 23037N   24107.76557373 -.00006226  00000-0 -51498-3 0  9997,2 55926  70.0012 229.1636 0002535 261.1833  98.9039 14.98291298 60677,6950.313,96.109,573.939,570.416,0.0
55926.0,STARLINK-5921,PAYLOAD,2024-04-17 11:59:52,14.98316067,0.0002132,70.002,227.3119,258.2444,101.8476,-8.5346e-05,-1.111e-05,0.0,0 STARLINK-5921,1 55926U 23037N   24108.49991577 -.00001111  00000-0 -85346-4 0  9994,2 55926  70.0020 227.3119 0002132 258.2444 101.8476 14.98316067 60783,6950.236,96.108,573.583,570.619,0.0
55926.0,STARLINK-5921,PAYLOAD,2024-04-17 16:48:16,14.98321433,0.0001672,70.0038,226.8087,234.7366,125.3637,2.7513e-06,-6e-07,0.0,0 STARLINK-5921,1 55926U 23037N   24108.70019110 -.00000060  00000-0  27513-5 0  9996,2 55926  70.0038 226.8087 0001672 234.7366 125.3637 14.98321433 60817,6950.219,96.108,573.246,570.922,0.0
55926.0,STARLINK-5921,PAYLOAD,2024-04-18 12:01:51,14.98340607,0.0002213,70.0019,224.7877,259.7615,100.3294,0.00018096,2.067e-05,0.0,0 STARLINK-5921,1 55926U 23037N   24109.50129420  .00002067  00000-0  18096-3 0  9993,2 55926  70.0019 224.7877 0002213 259.7615 100.3294 14.98340607 60935,6950.16,96.106,573.563,570.487,0.0
55926.0,STARLINK-5921,PAYLOAD,2024-04-18 16:50:15,14.98343543,0.0002158,70.0022,224.2835,255.448,104.644,0.0002124,2.443e-05,0.0,0 STARLINK-5921,1 55926U 23037N   24109.70157125  .00002443  00000-0  21240-3 0  9991,2 55926  70.0022 224.2835 0002158 255.4480 104.6440 14.98343543 60627,6950.151,96.106,573.516,570.516,0.0
55926.0,STARLINK-5921,PAYLOAD,2024-04-19 12:03:53,14.98332686,0.0001911,70.0033,222.2653,229.9717,130.1274,0.00015708,1.782e-05,0.0,0 STARLINK-5921,1 55926U 23037N   24110.50270055  .00001782  00000-0  15708-3 0  9996,2 55926  70.0033 222.2653 0001911 229.9717 130.1274 14.98332686 61086,6950.185,96.107,573.378,570.721,0.0
55926.0,STARLINK-5921,PAYLOAD,2024-04-19 13:40:01,14.98332669,0.0001932,70.0033,222.097,228.1872,131.9123,0.00015328,1.737e-05,0.0,0 STARLINK-5921,1 55926U 23037N   24110.56946038  .00001737  00000-0  15328-3 0  9991,2 55926  70.0033 222.0970 0001932 228.1872 131.9123 14.98332669 60758,6950.185,96.107,573.392,570.707,0.0
55926.0,STARLINK-5921,PAYLOAD,2024-04-19 16:52:16,14.98341639,0.0002054,70.0025,221.7591,242.4808,117.6143,0.00015268,1.73e-05,0.0,0 STARLINK-5921,1 55926U 23037N   24110.70297327  .00001730  00000-0  15268-3 0  9993,2 55926  70.0025 221.7591 0002054 242.4808 117.6143 14.98341639 61119,6950.157,96.106,573.449,570.594,0.0
